{
    "links": {
        "self": "http://www.neowsapp.com/rest/v1/neo/3695649?api_key=iIulBulltgU6a56xZRHN4H3l9WmuAYTsLGpBGhQ2"
    },
    "id": "3695649",
    "neo_reference_id": "3695649",
    "name": "(2014 UD192)",
    "designation": "2014 UD192",
    "nasa_jpl_url": "http://ssd.jpl.nasa.gov/sbdb.cgi?sstr=3695649",
    "absolute_magnitude_h": 25.9,
    "estimated_diameter": {
        "kilometers": {
            "estimated_diameter_min": 0.0175612318,
            "estimated_diameter_max": 0.0392681082
        },
        "meters": {
            "estimated_diameter_min": 17.561231848,
            "estimated_diameter_max": 39.2681081809
        },
        "miles": {
            "estimated_diameter_min": 0.0109120402,
            "estimated_diameter_max": 0.0244000636
        },
        "feet": {
            "estimated_diameter_min": 57.6155918963,
            "estimated_diameter_max": 128.8323800441
        }
    },
    "is_potentially_hazardous_asteroid": false,
    "close_approach_data": [
        {
            "close_approach_date": "2014-11-08",
            "close_approach_date_full": "2014-Nov-08 20:42",
            "epoch_date_close_approach": 1415479320000,
            "relative_velocity": {
                "kilometers_per_second": "13.4904046544",
                "kilometers_per_hour": "48565.4567558663",
                "miles_per_hour": "30176.6861714437"
            },
            "miss_distance": {
                "astronomical": "0.0084745753",
                "lunar": "3.2966097917",
                "kilometers": "1267778.414034611",
                "miles": "787760.9775191918"
            },
            "orbiting_body": "Moon"
        },
        {
            "close_approach_date": "2014-11-09",
            "close_approach_date_full": "2014-Nov-09 03:08",
            "epoch_date_close_approach": 1415502480000,
            "relative_velocity": {
                "kilometers_per_second": "14.0530892372",
                "kilometers_per_hour": "50591.1212540114",
                "miles_per_hour": "31435.3553147495"
            },
            "miss_distance": {
                "astronomical": "0.0079333276",
                "lunar": "3.0860644364",
                "kilometers": "1186808.910972212",
                "miles": "737448.8613200456"
            },
            "orbiting_body": "Earth"
        },
        {
            "close_approach_date": "2040-04-04",
            "close_approach_date_full": "2040-Apr-04 00:38",
            "epoch_date_close_approach": 2217112680000,
            "relative_velocity": {
                "kilometers_per_second": "22.0302953652",
                "kilometers_per_hour": "79309.0633147571",
                "miles_per_hour": "49279.5677024389"
            },
            "miss_distance": {
                "astronomical": "0.2696666921",
                "lunar": "104.9003432269",
                "kilometers": "40341562.748105827",
                "miles": "25067084.7155093326"
            },
            "orbiting_body": "Earth"
        }
    ],
    "orbital_data": {
        "orbit_id": "6",
        "orbit_determination_date": "2017-04-06 08:37:39",
        "first_observation_date": "2014-10-30",
        "last_observation_date": "2014-11-07",
        "data_arc_in_days": 8,
        "observations_used": 20,
        "orbit_uncertainty": "8",
        "minimum_orbit_intersection": ".00792894",
        "jupiter_tisserand_invariant": "3.787",
        "epoch_osculation": "2456962.5",
        "eccentricity": ".5776639018809754",
        "semi_major_axis": "1.84922652303038",
        "inclination": "1.02708383906748",
        "ascending_node_longitude": "252.7941781239475",
        "orbital_period": "918.5093838043319",
        "perihelion_distance": ".7809951142748612",
        "perihelion_argument": "218.5700555487025",
        "aphelion_distance": "2.917457931785899",
        "perihelion_time": "2457013.480362349229",
        "mean_anomaly": "340.0187883005536",
        "mean_motion": ".3919393817283962",
        "equinox": "J2000",
        "orbit_class": {
            "orbit_class_type": "APO",
            "orbit_class_description": "Near-Earth asteroid orbits which cross the Earth’s orbit similar to that of 1862 Apollo",
            "orbit_class_range": "a (semi-major axis) > 1.0 AU; q (perihelion) < 1.017 AU"
        }
    },
    "is_sentry_object": false
}